GSAT0215 (GALILEO 19)   
1 43055U 17079A   26169.77531633  .00000028  00000+0  00000+0 0  9998
2 43055  55.0730 221.4630 0003228 264.0800  95.9660  1.70474593 53016
GSAT0216 (GALILEO 20)   
1 43056U 17079B   26168.89331476  .00000034  00000+0  00000+0 0  9991
2 43056  55.0732 221.4873 0004317 276.2784  83.7610  1.70474666 53015
GSAT0217 (GALILEO 21)   
1 43057U 17079C   26167.35438370  .00000047  00000+0  00000+0 0  9997
2 43057  55.0717 221.5274 0004985 283.8791  76.1632  1.70474228 52976
GSAT0218 (GALILEO 22)   
1 43058U 17079D   26170.50733131  .00000026  00000+0  00000+0 0  9999
2 43058  55.0708 221.4378 0004305 273.7481  86.2815  1.70474769 53056
BEIDOU-3 M7             
1 43107U 18003A   26171.03534061 -.00000089  00000+0  00000+0 0  9992
2 43107  54.3254 302.2159 0004851  94.5867 265.4639  1.86227890 57403
BEIDOU-3 M8             
1 43108U 18003B   26171.51700953 -.00000093  00000+0  00000+0 0  9996
2 43108  54.3172 302.1809 0002615 260.4330  99.5328  1.86231030 57423
BEIDOU-3 M4             
1 43207U 18018A   26171.96002647 -.00000078  00000+0  00000+0 0  9999
2 43207  56.6545  63.0234 0007674  20.2662 339.8025  1.86230959 56812
BEIDOU-3 M3             
1 43208U 18018B   26172.02651015 -.00000078  00000+0  00000+0 0  9997
2 43208  56.6539  63.0252 0008507 342.4990  17.5099  1.86231037 56814
BEIDOU-3 M9             
1 43245U 18029A   26171.17043730 -.00000089  00000+0  00000+0 0  9996
2 43245  54.1908 299.8436 0000998 153.7677 206.2347  1.86227999 55951
BEIDOU-3 M10            
1 43246U 18029B   26170.03086451 -.00000080  00000+0  00000+0 0  9999
2 43246  54.1899 299.9108 0003781  40.0504 319.9737  1.86229038 55915
IRNSS-1I                
1 43286U 18035A   26166.83981681  .00000062  00000+0  00000+0 0  9991
2 43286  28.7520  74.2167 0017811 181.5598   5.5147  1.00272046 30064
COSMOS 2527 [GLONASS-M] 
1 43508U 18053A   26170.90026155 -.00000034  00000+0  00000+0 0  9997
2 43508  65.5791  73.8170 0006906 238.7549 121.2143  2.13102048 62339
BEIDOU-2 IGSO-7         
1 43539U 18057A   26171.91802064 -.00000023  00000+0  00000+0 0  9996
2 43539  55.1960 163.0240 0104976 238.0113 308.2121  1.00249965 29164
GSAT0221 (GALILEO 25)   
1 43564U 18060A   26168.65155293 -.00000090  00000+0  00000+0 0  9994
2 43564  57.1692 341.7677 0002595 303.5364  56.4325  1.70475954 49172
GSAT0222 (GALILEO 26)   
1 43565U 18060B   26170.04438053 -.00000093  00000+0  00000+0 0  9992
2 43565  57.1718 341.7337 0001999 248.0862 111.8861  1.70475706 49242
GSAT0219 (GALILEO 23)   
1 43566U 18060C   26171.43843957 -.00000095  00000+0  00000+0 0  9992
2 43566  57.1711 341.6976 0001949 321.5861  38.3948  1.70475997 49246
GSAT0220 (GALILEO 24)   
1 43567U 18060D   26170.48626588 -.00000094  00000+0  00000+0 0  9995
2 43567  57.1712 341.7225 0002111 313.2574  46.7188  1.70475760 49211
BEIDOU-3 M5             
1 43581U 18062A   26171.32881155  .00000068  00000+0  00000+0 0  9990
2 43581  54.0851 182.1963 0005659 290.1184  69.8429  1.86228559 53693
BEIDOU-3 M6             
1 43582U 18062B   26171.19229804  .00000066  00000+0  00000+0 0  9991
2 43582  54.0852 182.1905 0005006   8.6086 351.4220  1.86227785 53699
BEIDOU-3 M12            
1 43602U 18067A   26172.20462948  .00000079  00000+0  00000+0 0  9994
2 43602  54.1808 180.9038 0007825  29.8811 330.1852  1.86227642 53191
BEIDOU-3 M11            
1 43603U 18067B   26171.26578027  .00000068  00000+0  00000+0 0  9994
2 43603  54.1780 180.8993 0004517  12.7566 347.2746  1.86227129 53206
BEIDOU-3 M13            
1 43622U 18072A   26172.29454427 -.00000081  00000+0  00000+0 0  9998
2 43622  56.6282  62.5240 0007137 330.1286  29.8688  1.86231065 52738
BEIDOU-3 M14            
1 43623U 18072B   26172.15997682 -.00000080  00000+0  00000+0 0  9998
2 43623  56.6300  62.5228 0006120   1.7619 358.2786  1.86231110 52726
BEIDOU-3 M16            
1 43647U 18078A   26171.24134385 -.00000090  00000+0  00000+0 0  9993
2 43647  54.0868 299.8789 0007135  41.0909 318.9600  1.86232267 52212
BEIDOU-3 M15            
1 43648U 18078B   26171.37062705 -.00000091  00000+0  00000+0 0  9995
2 43648  54.0825 299.8748 0004076  58.0000 302.0369  1.86232388 52234
BEIDOU-3 G1             
1 43683U 18085A   26172.50531091 -.00000111  00000+0  00000+0 0  9990
2 43683   2.8805  97.2530 0008152 350.3805 163.9159  1.00270433 28100
COSMOS 2529 [GLONASS-M] 
1 43687U 18086A   26169.11967451  .00000057  00000+0  00000+0 0  9999
2 43687  64.2948 192.5630 0012066 256.5324 103.3830  2.13101950 59308
BEIDOU-3 M17            
1 43706U 18093A   26172.18891355  .00000078  00000+0  00000+0 0  9992
2 43706  54.1692 182.1601 0010176 292.3320 147.9319  1.86228431 51616
BEIDOU-3 M18            
1 43707U 18093B   26170.32164601  .00000059  00000+0  00000+0 0  9993
2 43707  54.1697 182.2155 0008016 320.7909  39.1732  1.86226376 51578
NAVSTAR 77 (USA 289)    
1 43873U 18109A   26171.21185719 -.00000019  00000+0  00000+0 0  9994
2 43873  55.6840  92.0670 0038226 197.8624 309.8411  2.00561777 55132
BEIDOU-3 IGSO-1         
1 44204U 19023A   26171.54826712 -.00000229  00000+0  00000+0 0  9993
2 44204  58.6998  37.6136 0025616 225.5297 321.1703  1.00290704  7242
